STARLINK-30610          
1 58082U 23160H   26068.35112743 -.00002157  00000+0 -70759-4 0  9991
2 58082  43.0023  79.8267 0001438 246.9548 113.1152 15.26733570132896
ARCSTONE                
1 64540U 25135N   26068.88991918  .00026427  00000+0  94900-3 0  9995
2 64540  97.4495 185.9194 0004120 166.7863 193.3485 15.28638458 39847
